{"type": "FeatureCollection", "features": [ {"type": "Feature", "properties": {"norad_id": 33867, "name": "IRIDIUM 33 DEB", "group": "iridium-33-debris", "lat": -77.20029364086912, "lon": -23.680416643119663, "alt_km": 403.7694434602354, "timestamp": "2025-12-07T22:37:43.466179+00:00", "meta": {"OBJECT_NAME": "IRIDIUM 33 DEB", "OBJECT_ID": "1997-051AL", "EPOCH": "2025-12-06T23:51:25.855200", "MEAN_MOTION": 15.58581253, "ECCENTRICITY": 0.00124601, "INCLINATION": 86.3623, "RA_OF_ASC_NODE": 353.0684, "ARG_OF_PERICENTER": 93.0935, "MEAN_ANOMALY": 267.1755, "EPHEMERIS_TYPE": 0, "CLASSIFICATION_TYPE": "U", "NORAD_CAT_ID": 33867, "ELEMENT_SET_NO": 999, "REV_AT_EPOCH": 89421, "BSTAR": 0.0084503515, "MEAN_MOTION_DOT": 0.0070536, "MEAN_MOTION_DDOT": 0}, "tle": {"line1": "1 33867U 97051AL  25340.99404925  .00705360  00000+0  84504-2 0  9998", "line2": "2 33867  86.3623 353.0684 0012460  93.0935 267.1755 15.58581253894218"}}, "geometry": {"type": "Point", "coordinates": [-23.680416643119663, -77.20029364086912]}}, {"type": "Feature", "properties": {"norad_id": 33870, "name": "IRIDIUM 33 DEB", "group": "iridium-33-debris", "lat": -34.60320680907276, "lon": -117.17619959701294, "alt_km": 731.769516807045, "timestamp": "2025-12-07T22:37:43.466190+00:00", "meta": {"OBJECT_NAME": "IRIDIUM 33 DEB", "OBJECT_ID": "1997-051AP", "EPOCH": "2025-12-07T05:10:40.013760", "MEAN_MOTION": 14.45805059, "ECCENTRICITY": 0.00208785, "INCLINATION": 86.3751, "RA_OF_ASC_NODE": 60.6286, "ARG_OF_PERICENTER": 196.3366, "MEAN_ANOMALY": 195.9622, "EPHEMERIS_TYPE": 0, "CLASSIFICATION_TYPE": "U", "NORAD_CAT_ID": 33870, "ELEMENT_SET_NO": 999, "REV_AT_EPOCH": 88057, "BSTAR": 0.0013518348, "MEAN_MOTION_DOT": 4.826e-05, "MEAN_MOTION_DDOT": 0}, "tle": {"line1": "1 33870U 97051AP  25341.21574090  .00004826  00000+0  13518-2 0  9995", "line2": "2 33870  86.3751  60.6286 0020878 196.3366 195.9622 14.45805059880573"}}, "geometry": {"type": "Point", "coordinates": [-117.17619959701294, -34.60320680907276]}}, {"type": "Feature", "properties": {"norad_id": 33881, "name": "IRIDIUM 33 DEB", "group": "iridium-33-debris", "lat": -78.8320132156578, "lon": -52.50855245813221, "alt_km": 696.5182564262605, "timestamp": "2025-12-07T22:37:43.466202+00:00", "meta": {"OBJECT_NAME": "IRIDIUM 33 DEB", "OBJECT_ID": "1997-051BA", "EPOCH": "2025-12-06T21:17:41.557056", "MEAN_MOTION": 14.5641101, "ECCENTRICITY": 0.00613255, "INCLINATION": 86.3871, "RA_OF_ASC_NODE": 109.2851, "ARG_OF_PERICENTER": 193.6863, "MEAN_ANOMALY": 294.0884, "EPHEMERIS_TYPE": 0, "CLASSIFICATION_TYPE": "U", "NORAD_CAT_ID": 33881, "ELEMENT_SET_NO": 999, "REV_AT_EPOCH": 87415, "BSTAR": 0.0034816838, "MEAN_MOTION_DOT": 0.00015893, "MEAN_MOTION_DDOT": 0}, "tle": {"line1": "1 33881U 97051BA  25340.88728654  .00015893  00000+0  34817-2 0  9997", "line2": "2 33881  86.3871 109.2851 0061325 193.6863 294.0884 14.56411010874150"}}, "geometry": {"type": "Point", "coordinates": [-52.50855245813221, -78.8320132156578]}}, {"type": "Feature", "properties": {"norad_id": 33884, "name": "IRIDIUM 33 DEB", "group": "iridium-33-debris", "lat": -25.8276417719814, "lon": -166.25520080410718, "alt_km": 648.8558593763, "timestamp": "2025-12-07T22:37:43.466213+00:00", "meta": {"OBJECT_NAME": "IRIDIUM 33 DEB", "OBJECT_ID": "1997-051BD", "EPOCH": "2025-12-07T02:18:32.632992", "MEAN_MOTION": 14.7726693, "ECCENTRICITY": 0.00102292, "INCLINATION": 86.3688, "RA_OF_ASC_NODE": 12.3655, "ARG_OF_PERICENTER": 345.137, "MEAN_ANOMALY": 40.9954, "EPHEMERIS_TYPE": 0, "CLASSIFICATION_TYPE": "U", "NORAD_CAT_ID": 33884, "ELEMENT_SET_NO": 999, "REV_AT_EPOCH": 88764, "BSTAR": 0.0021152587, "MEAN_MOTION_DOT": 0.00015051, "MEAN_MOTION_DDOT": 0}, "tle": {"line1": "1 33884U 97051BD  25341.09621103  .00015051  00000+0  21153-2 0  9990", "line2": "2 33884  86.3688  12.3655 0010229 345.1370  40.9954 14.77266930887645"}}, "geometry": {"type": "Point", "coordinates": [-166.25520080410718, -25.8276417719814]}}, {"type": "Feature", "properties": {"norad_id": 33886, "name": "IRIDIUM 33 DEB", "group": "iridium-33-debris", "lat": 56.0210679446095, "lon": -116.13745507319766, "alt_km": 772.6346707796883, "timestamp": "2025-12-07T22:37:43.466224+00:00", "meta": {"OBJECT_NAME": "IRIDIUM 33 DEB", "OBJECT_ID": "1997-051BF", "EPOCH": "2025-12-07T01:07:16.810176", "MEAN_MOTION": 14.36041128, "ECCENTRICITY": 0.00120696, "INCLINATION": 86.3831, "RA_OF_ASC_NODE": 69.6247, "ARG_OF_PERICENTER": 263.5823, "MEAN_ANOMALY": 270.3619, "EPHEMERIS_TYPE": 0, "CLASSIFICATION_TYPE": "U", "NORAD_CAT_ID": 33886, "ELEMENT_SET_NO": 999, "REV_AT_EPOCH": 87970, "BSTAR": 0.00036882618, "MEAN_MOTION_DOT": 1.092e-05, "MEAN_MOTION_DDOT": 0}, "tle": {"line1": "1 33886U 97051BF  25341.04672234  .00001092  00000+0  36883-3 0  9995", "line2": "2 33886  86.3831  69.6247 0012069 263.5823 270.3619 14.36041128879709"}}, "geometry": {"type": "Point", "coordinates": [-116.13745507319766, 56.0210679446095]}}, {"type": "Feature", "properties": {"norad_id": 33887, "name": "IRIDIUM 33 DEB", "group": "iridium-33-debris", "lat": 39.74867802309025, "lon": 8.540603604701882, "alt_km": 767.25023918834, "timestamp": "2025-12-07T22:37:43.466235+00:00", "meta": {"OBJECT_NAME": "IRIDIUM 33 DEB", "OBJECT_ID": "1997-051BG", "EPOCH": "2025-12-07T00:51:15.596352", "MEAN_MOTION": 14.37213373, "ECCENTRICITY": 0.00040967, "INCLINATION": 86.3048, "RA_OF_ASC_NODE": 5.8505, "ARG_OF_PERICENTER": 253.4164, "MEAN_ANOMALY": 135.2928, "EPHEMERIS_TYPE": 0, "CLASSIFICATION_TYPE": "U", "NORAD_CAT_ID": 33887, "ELEMENT_SET_NO": 999, "REV_AT_EPOCH": 88083, "BSTAR": 0.00025442892, "MEAN_MOTION_DOT": 7.77e-06, "MEAN_MOTION_DDOT": 0}, "tle": {"line1": "1 33887U 97051BG  25341.03559718  .00000777  00000+0  25443-3 0  9995", "line2": "2 33887  86.3048   5.8505 0004096 253.4164 135.2928 14.37213373880838"}}, "geometry": {"type": "Point", "coordinates": [8.540603604701882, 39.74867802309025]}}, {"type": "Feature", "properties": {"norad_id": 33953, "name": "IRIDIUM 33 DEB", "group": "iridium-33-debris", "lat": -56.060907227127835, "lon": 50.470277975393806, "alt_km": 728.7358586724895, "timestamp": "2025-12-07T22:37:43.466245+00:00", "meta": {"OBJECT_NAME": "IRIDIUM 33 DEB", "OBJECT_ID": "1997-051BN", "EPOCH": "2025-12-07T04:52:02.769312", "MEAN_MOTION": 14.55240565, "ECCENTRICITY": 0.00185224, "INCLINATION": 86.3845, "RA_OF_ASC_NODE": 56.1825, "ARG_OF_PERICENTER": 119.6509, "MEAN_ANOMALY": 269.6511, "EPHEMERIS_TYPE": 0, "CLASSIFICATION_TYPE": "U", "NORAD_CAT_ID": 33953, "ELEMENT_SET_NO": 999, "REV_AT_EPOCH": 88223, "BSTAR": 0.0019512247, "MEAN_MOTION_DOT": 8.487e-05, "MEAN_MOTION_DDOT": 0}, "tle": {"line1": "1 33953U 97051BN  25341.20280983  .00008487  00000+0  19512-2 0  9998", "line2": "2 33953  86.3845  56.1825 0018522 119.6509 269.6511 14.55240565882235"}}, "geometry": {"type": "Point", "coordinates": [50.470277975393806, -56.060907227127835]}}, {"type": "Feature", "properties": {"norad_id": 33960, "name": "IRIDIUM 33 DEB", "group": "iridium-33-debris", "lat": -44.12225875866104, "lon": -71.86841844846307, "alt_km": 622.8543045144415, "timestamp": "2025-12-07T22:37:43.466257+00:00", "meta": {"OBJECT_NAME": "IRIDIUM 33 DEB", "OBJECT_ID": "1997-051BV", "EPOCH": "2025-12-07T03:27:46.369152", "MEAN_MOTION": 14.84740779, "ECCENTRICITY": 0.00072795, "INCLINATION": 86.2539, "RA_OF_ASC_NODE": 292.1509, "ARG_OF_PERICENTER": 70.1028, "MEAN_ANOMALY": 300.1032, "EPHEMERIS_TYPE": 0, "CLASSIFICATION_TYPE": "U", "NORAD_CAT_ID": 33960, "ELEMENT_SET_NO": 999, "REV_AT_EPOCH": 88784, "BSTAR": 0.004868565, "MEAN_MOTION_DOT": 0.00041494, "MEAN_MOTION_DDOT": 0}, "tle": {"line1": "1 33960U 97051BV  25341.14428668  .00041494  00000+0  48686-2 0  9992", "line2": "2 33960  86.2539 292.1509 0007279  70.1028 300.1032 14.84740779887842"}}, "geometry": {"type": "Point", "coordinates": [-71.86841844846307, -44.12225875866104]}}, {"type": "Feature", "properties": {"norad_id": 33966, "name": "IRIDIUM 33 DEB", "group": "iridium-33-debris", "lat": 11.580627835080966, "lon": -132.6545835564255, "alt_km": 724.663097855997, "timestamp": "2025-12-07T22:37:43.466267+00:00", "meta": {"OBJECT_NAME": "IRIDIUM 33 DEB", "OBJECT_ID": "1997-051CB", "EPOCH": "2025-12-07T02:10:42.139200", "MEAN_MOTION": 14.49558649, "ECCENTRICITY": 0.00067634, "INCLINATION": 86.3927, "RA_OF_ASC_NODE": 48.4516, "ARG_OF_PERICENTER": 207.8589, "MEAN_ANOMALY": 196.7074, "EPHEMERIS_TYPE": 0, "CLASSIFICATION_TYPE": "U", "NORAD_CAT_ID": 33966, "ELEMENT_SET_NO": 999, "REV_AT_EPOCH": 88360, "BSTAR": 0.00095264475, "MEAN_MOTION_DOT": 3.674e-05, "MEAN_MOTION_DDOT": 0}, "tle": {"line1": "1 33966U 97051CB  25341.09076550  .00003674  00000+0  95264-3 0  9994", "line2": "2 33966  86.3927  48.4516 0006763 207.8589 196.7074 14.49558649883607"}}, "geometry": {"type": "Point", "coordinates": [-132.6545835564255, 11.580627835080966]}}, {"type": "Feature", "properties": {"norad_id": 34071, "name": "IRIDIUM 33 DEB", "group": "iridium-33-debris", "lat": -56.94643080864785, "lon": -154.45025783702036, "alt_km": 737.8179850176402, "timestamp": "2025-12-07T22:37:43.466278+00:00", "meta": {"OBJECT_NAME": "IRIDIUM 33 DEB", "OBJECT_ID": "1997-051CE", "EPOCH": "2025-12-07T01:39:23.533632", "MEAN_MOTION": 14.49427213, "ECCENTRICITY": 0.00097313, "INCLINATION": 86.3456, "RA_OF_ASC_NODE": 20.2932, "ARG_OF_PERICENTER": 122.8421, "MEAN_ANOMALY": 237.3721, "EPHEMERIS_TYPE": 0, "CLASSIFICATION_TYPE": "U", "NORAD_CAT_ID": 34071, "ELEMENT_SET_NO": 999, "REV_AT_EPOCH": 88252, "BSTAR": 0.00099451652, "MEAN_MOTION_DOT": 3.825e-05, "MEAN_MOTION_DDOT": 0}, "tle": {"line1": "1 34071U 97051CE  25341.06902238  .00003825  00000+0  99452-3 0  9991", "line2": "2 34071  86.3456  20.2932 0009731 122.8421 237.3721 14.49427213882524"}}, "geometry": {"type": "Point", "coordinates": [-154.45025783702036, -56.94643080864785]}}]}